[
    {
        "CCSDS_OMM_VERS": "3.0",
        "COMMENT": "GENERATED VIA SPACE-TRACK.ORG API",
        "CREATION_DATE": "2025-02-28T19:05:01",
        "ORIGINATOR": "18 SPCS",
        "OBJECT_NAME": "COSMOS 2559 (GLONASS)",
        "OBJECT_ID": "2022-130A",
        "CENTER_NAME": "EARTH",
        "REF_FRAME": "TEME",
        "TIME_SYSTEM": "UTC",
        "MEAN_ELEMENT_THEORY": "SGP4",
        "EPOCH": "2025-02-28T02:22:59.996064",
        "MEAN_MOTION": "2.13101119",
        "ECCENTRICITY": "0.00057670",
        "INCLINATION": "64.5317",
        "RA_OF_ASC_NODE": "331.2521",
        "ARG_OF_PERICENTER": "233.5512",
        "MEAN_ANOMALY": "126.4410",
        "EPHEMERIS_TYPE": "0",
        "CLASSIFICATION_TYPE": "U",
        "NORAD_CAT_ID": "54031",
        "ELEMENT_SET_NO": "999",
        "REV_AT_EPOCH": "1858",
        "BSTAR": "0.00000000000000",
        "MEAN_MOTION_DOT": "-0.00000044",
        "MEAN_MOTION_DDOT": "0.0000000000000",
        "SEMIMAJOR_AXIS": "25508.095",
        "PERIOD": "675.736",
        "APOAPSIS": "19144.670",
        "PERIAPSIS": "19115.249",
        "OBJECT_TYPE": "PAYLOAD",
        "RCS_SIZE": "LARGE",
        "COUNTRY_CODE": "CIS",
        "LAUNCH_DATE": "2022-10-10",
        "SITE": "PKMTR",
        "DECAY_DATE": null,
        "FILE": "4655208",
        "GP_ID": "281926283",
        "TLE_LINE0": "0 COSMOS 2559 (GLONASS)",
        "TLE_LINE1": "1 54031U 22130A   25059.09930551 -.00000044  00000-0  00000-0 0  9993",
        "TLE_LINE2": "2 54031  64.5317 331.2521 0005767 233.5512 126.4410  2.13101119 18583"
    }
]